OBJECT_NAME,OBJECT_ID,EPOCH,MEAN_MOTION,ECCENTRICITY,INCLINATION,RA_OF_ASC_NODE,ARG_OF_PERICENTER,MEAN_ANOMALY,EPHEMERIS_TYPE,CLASSIFICATION_TYPE,NORAD_CAT_ID,ELEMENT_SET_NO,REV_AT_EPOCH,BSTAR,MEAN_MOTION_DOT,MEAN_MOTION_DDOT
DUCHIFAT-1,2014-033M,2026-06-09T02:05:18.604896,15.62989578,.00043246,98.0464,218.1182,130.2252,229.9384,0,U,40021,999,65448,.90222311E-3,.8235E-3,0
NANOSATC-BR1,2014-033Q,2026-06-09T00:53:52.251648,15.31195370,.00035439,98.0734,191.7047,185.9906,174.1292,0,U,40024,999,65273,.49565966E-3,.14864E-3,0
QB50P1,2014-033R,2026-06-08T23:27:25.839360,15.18136091,.00072105,98.0972,170.5484,248.4220,111.6244,0,U,40025,999,65178,.42191604E-3,.8544E-4,0
DTUSAT-2,2014-033W,2026-06-09T05:54:09.749952,15.14916834,.00061017,98.0866,157.4695,258.5460,101.5086,0,U,40030,999,65148,.31023696E-3,.5707E-4,0
QB50P2,2014-033Y,2026-06-09T05:46:58.729728,15.15057589,.00071754,98.0755,156.6271,188.7079,171.4028,0,U,40032,999,65146,.3087945E-3,.5704E-4,0
PERSEUS-M1,2014-033AF,2026-06-09T01:47:33.690336,14.95610260,.00107256,97.9642,104.0737,332.5515,27.5137,0,U,40039,999,64942,.13384169E-3,.1427E-4,0
POLYITAN-1,2014-033AJ,2026-06-09T00:34:59.729088,15.32968455,.00079895,98.0953,185.5149,165.0271,195.1207,0,U,40042,999,65234,.50413096E-3,.15996E-3,0
TIGRISAT,2014-033AK,2026-06-08T23:07:28.077888,14.85130632,.00507001,97.7823,310.1645,101.4521,259.2395,0,U,40043,999,64440,.2827626E-3,.242E-4,0
CANX-4,2014-034C,2026-06-09T04:20:29.629536,14.81249771,.00136864,98.3133,35.1997,41.4631,318.7616,0,U,40055,999,64334,.1169708E-3,.855E-5,0
CANX-5,2014-034D,2026-06-09T04:18:22.281984,14.81266924,.00136957,98.3135,35.2414,41.5932,318.6319,0,U,40056,999,63415,.11810238E-3,.864E-5,0
GONETS-M 10,2014-036C,2026-06-09T06:18:07.555680,12.42945695,.00223406,82.5112,312.5978,157.2806,202.9267,0,U,40063,999,54126,.59468205E-3,.92E-6,0
METEOR-M 2,2014-037A,2026-06-09T06:17:09.295296,14.21460532,.00069931,98.5114,136.2813,63.5189,296.6705,0,U,40069,999,61819,.21597469E-3,.43E-5,0
DX1,2014-037C,2026-06-09T05:39:13.159008,14.89961763,.00060704,98.3862,121.4551,306.9013,53.1646,0,U,40071,999,64492,.20998251E-3,.1961E-4,0
UKUBE-1,2014-037F,2026-06-09T05:37:55.255584,15.13424303,.00021263,98.4239,162.6716,144.7688,215.3682,0,U,40074,999,64735,.42922303E-3,.7593E-4,0
GAOFEN-2,2014-049A,2026-06-09T06:30:06.884064,14.80890854,.00058958,98.0107,224.4855,258.5732,101.4818,0,U,40118,999,63806,.10296728E-3,.742E-5,0
BRITE-PL2 (HEWELIUSZ),2014-049B,2026-06-09T06:32:05.756640,14.94568700,.00151663,97.9089,272.2120,132.0173,228.2341,0,U,40119,999,64026,.18288975E-3,.1922E-4,0
CBERS 4,2014-079A,2026-06-09T07:12:25.147584,14.35506681,.00019965,98.3531,217.3790,71.4957,288.6446,0,U,40336,999,60282,-.4710311E-5,-.56E-6,0
SMAP,2015-003A,2026-06-09T06:50:21.576480,14.63359581,.00012748,98.1276,167.4915,93.3644,266.7704,0,U,40376,999,60646,.84504115E-4,.39E-5,0
GONETS-M 11,2015-020A,2026-06-09T06:44:03.759648,12.42876867,.0016965,82.4873,35.9184,22.3720,337.8096,0,U,40552,999,50775,.45472764E-4,.16E-6,0
GONETS-M 12,2015-020B,2026-06-09T06:06:00.904896,12.42890973,.00157138,82.4907,37.0566,7.9259,352.2066,0,U,40553,999,50774,.40529936E-4,.15E-6,0
GONETS-M 13,2015-020C,2026-06-09T07:23:33.200160,12.42870124,.00140569,82.4869,35.6405,353.5049,6.5847,0,U,40554,999,50772,.22633452E-3,.41E-6,0
DMC3-FM1,2015-032A,2026-06-09T06:11:54.564288,14.85731684,.0007212,97.6472,25.7439,80.2620,279.9410,0,U,40715,999,58873,.12781037E-3,.1058E-4,0
DMC3-FM2,2015-032B,2026-06-09T06:43:42.381696,14.85735616,.00076943,97.6526,27.3334,83.8380,276.3713,0,U,40716,999,58873,.55281929E-4,.429E-5,0
DMC3-FM3,2015-032C,2026-06-09T05:40:14.191968,14.85722776,.00068335,97.6576,29.0388,84.1545,276.0449,0,U,40717,999,58873,.18703732E-4,.111E-5,0
CARBONITE 1 (CBNT-1),2015-032D,2026-06-09T06:59:29.844096,14.83561155,.00137267,97.6510,338.6891,326.0852,33.9483,0,U,40718,999,58817,.96001989E-4,.741E-5,0
LILACSAT-2,2015-049K,2026-06-09T06:34:18.671808,15.51182127,.00052734,97.4660,196.8157,283.5589,76.5075,0,U,40908,999,59452,.27592914E-3,.16042E-3,0
